ONEWEB-0136             
1 47282U 20100AA  26143.33824897  .00000328  00000+0  87599-3 0  9999
2 47282  87.8960 355.5910 0001494  81.9406 278.1892 13.12442964261403
ONEWEB-0137             
1 47283U 20100AB  26143.52460389 -.00000148  00000+0 -44704-3 0  9996
2 47283  87.8964 355.5629 0001860  88.7650 271.3692 13.12440788261335
ONEWEB-0138             
1 47284U 20100AC  26143.50258579  .00000189  00000+0  48941-3 0  9991
2 47284  87.8962 355.5738 0001547  84.5719 275.5586 13.12442560261414
ONEWEB-0139             
1 47285U 20100AD  26143.54338595 -.00000373  00000+0 -10731-2 0  9995
2 47285  87.8960 355.5521 0001745  86.5592 273.5736 13.12443762261492
ONEWEB-0140             
1 47286U 20100AE  26143.49750130  .00000438  00000+0  11834-2 0  9998
2 47286  87.8963 355.5517 0001825  79.9746 280.1589 13.12442016261454
ONEWEB-0141             
1 47287U 20100AF  26143.54310451 -.00000325  00000+0 -93845-3 0  9993
2 47287  87.8960 355.5475 0001961  94.4935 265.6417 13.12442335261449
ONEWEB-0142             
1 47288U 20100AG  26143.53152022 -.00000327  00000+0 -94545-3 0  9991
2 47288  87.8954 355.5728 0001701  99.1476 260.9845 13.12440762261432
ONEWEB-0143             
1 47289U 20100AH  26143.54154558 -.00000388  00000+0 -11148-2 0  9993
2 47289  87.8960 355.5685 0001811  86.4168 273.7168 13.12442405261415
ONEWEB-0144             
1 47290U 20100AJ  26143.51274411  .00000224  00000+0  58638-3 0  9996
2 47290  87.8964 355.5473 0001482  92.0994 268.0304 13.12440765261337
ONEWEB-0145             
1 47291U 20100AK  26143.33147403  .00000210  00000+0  54833-3 0  9995
2 47291  87.8953 355.6138 0001706  87.7841 272.3482 13.12443632261506
ONEWEB-0146             
1 47292U 20100AL  26143.32809547  .00007437  00000+0  20631-1 0  9994
2 47292  87.8960 355.6043 0002039  88.5538 271.5824 13.12406541261411
ONEWEB-0147             
1 47293U 20100AM  26143.52291226 -.00000121  00000+0 -37190-3 0  9991
2 47293  87.8961 355.5470 0001700  81.2804 278.8517 13.12441298261334
ONEWEB-0115             
1 48042U 21025A   26143.49417086  .00000122  00000+0  29992-3 0  9991
2 48042  87.8946 325.1423 0001803  90.2016 269.9320 13.13469622250355
ONEWEB-0152             
1 48043U 21025B   26143.50771183 -.00000048  00000+0 -16670-3 0  9993
2 48043  87.8942 325.1359 0001856  86.1395 273.9946 13.13469545250311
ONEWEB-0153             
1 48044U 21025C   26143.48570784  .00000325  00000+0  85435-3 0  9996
2 48044  87.8940 325.1446 0001770  93.3451 266.7880 13.13469406250307
ONEWEB-0154             
1 48045U 21025D   26143.48231328  .00000098  00000+0  23260-3 0  9990
2 48045  87.8938 325.1423 0001732  89.5242 270.6085 13.13469646250265
