[{"OBJECT_NAME":"ONEWEB-0136","OBJECT_ID":"2020-100AA","EPOCH":"2026-05-23T08:07:04.711008","MEAN_MOTION":13.12442964,"ECCENTRICITY":0.0001494,"INCLINATION":87.896,"RA_OF_ASC_NODE":355.591,"ARG_OF_PERICENTER":81.9406,"MEAN_ANOMALY":278.1892,"EPHEMERIS_TYPE":0,"CLASSIFICATION_TYPE":"U","NORAD_CAT_ID":47282,"ELEMENT_SET_NO":999,"REV_AT_EPOCH":26140,"BSTAR":0.0008759900000000001,"MEAN_MOTION_DOT":3.28e-06,"MEAN_MOTION_DDOT":0.0},{"OBJECT_NAME":"ONEWEB-0137","OBJECT_ID":"2020-100AB","EPOCH":"2026-05-23T12:35:25.776096","MEAN_MOTION":13.12440788,"ECCENTRICITY":0.000186,"INCLINATION":87.8964,"RA_OF_ASC_NODE":355.5629,"ARG_OF_PERICENTER":88.765,"MEAN_ANOMALY":271.3692,"EPHEMERIS_TYPE":0,"CLASSIFICATION_TYPE":"U","NORAD_CAT_ID":47283,"ELEMENT_SET_NO":999,"REV_AT_EPOCH":26133,"BSTAR":-0.00044704,"MEAN_MOTION_DOT":-1.48e-06,"MEAN_MOTION_DDOT":0.0},{"OBJECT_NAME":"ONEWEB-0138","OBJECT_ID":"2020-100AC","EPOCH":"2026-05-23T12:03:43.412256","MEAN_MOTION":13.1244256,"ECCENTRICITY":0.0001547,"INCLINATION":87.8962,"RA_OF_ASC_NODE":355.5738,"ARG_OF_PERICENTER":84.5719,"MEAN_ANOMALY":275.5586,"EPHEMERIS_TYPE":0,"CLASSIFICATION_TYPE":"U","NORAD_CAT_ID":47284,"ELEMENT_SET_NO":999,"REV_AT_EPOCH":26141,"BSTAR":0.00048941,"MEAN_MOTION_DOT":1.89e-06,"MEAN_MOTION_DDOT":0.0},{"OBJECT_NAME":"ONEWEB-0139","OBJECT_ID":"2020-100AD","EPOCH":"2026-05-23T13:02:28.546080","MEAN_MOTION":13.12443762,"ECCENTRICITY":0.0001745,"INCLINATION":87.896,"RA_OF_ASC_NODE":355.5521,"ARG_OF_PERICENTER":86.5592,"MEAN_ANOMALY":273.5736,"EPHEMERIS_TYPE":0,"CLASSIFICATION_TYPE":"U","NORAD_CAT_ID":47285,"ELEMENT_SET_NO":999,"REV_AT_EPOCH":26149,"BSTAR":-0.0010731,"MEAN_MOTION_DOT":-3.73e-06,"MEAN_MOTION_DDOT":0.0},{"OBJECT_NAME":"ONEWEB-0140","OBJECT_ID":"2020-100AE","EPOCH":"2026-05-23T11:56:24.112320","MEAN_MOTION":13.12442016,"ECCENTRICITY":0.0001825,"INCLINATION":87.8963,"RA_OF_ASC_NODE":355.5517,"ARG_OF_PERICENTER":79.9746,"MEAN_ANOMALY":280.1589,"EPHEMERIS_TYPE":0,"CLASSIFICATION_TYPE":"U","NORAD_CAT_ID":47286,"ELEMENT_SET_NO":999,"REV_AT_EPOCH":26145,"BSTAR":0.0011834,"MEAN_MOTION_DOT":4.38e-06,"MEAN_MOTION_DDOT":0.0},{"OBJECT_NAME":"ONEWEB-0141","OBJECT_ID":"2020-100AF","EPOCH":"2026-05-23T13:02:04.229664","MEAN_MOTION":13.12442335,"ECCENTRICITY":0.0001961,"INCLINATION":87.896,"RA_OF_ASC_NODE":355.5475,"ARG_OF_PERICENTER":94.4935,"MEAN_ANOMALY":265.6417,"EPHEMERIS_TYPE":0,"CLASSIFICATION_TYPE":"U","NORAD_CAT_ID":47287,"ELEMENT_SET_NO":999,"REV_AT_EPOCH":26144,"BSTAR":-0.0009384500000000001,"MEAN_MOTION_DOT":-3.25e-06,"MEAN_MOTION_DDOT":0.0},{"OBJECT_NAME":"ONEWEB-0142","OBJECT_ID":"2020-100AG","EPOCH":"2026-05-23T12:45:23.347008","MEAN_MOTION":13.12440762,"ECCENTRICITY":0.0001701,"INCLINATION":87.8954,"RA_OF_ASC_NODE":355.5728,"ARG_OF_PERICENTER":99.1476,"MEAN_ANOMALY":260.9845,"EPHEMERIS_TYPE":0,"CLASSIFICATION_TYPE":"U","NORAD_CAT_ID":47288,"ELEMENT_SET_NO":999,"REV_AT_EPOCH":26143,"BSTAR":-0.00094545,"MEAN_MOTION_DOT":-3.27e-06,"MEAN_MOTION_DDOT":0.0},{"OBJECT_NAME":"ONEWEB-0143","OBJECT_ID":"2020-100AH","EPOCH":"2026-05-23T12:59:49.538112","MEAN_MOTION":13.12442405,"ECCENTRICITY":0.0001811,"INCLINATION":87.896,"RA_OF_ASC_NODE":355.5685,"ARG_OF_PERICENTER":86.4168,"MEAN_ANOMALY":273.7168,"EPHEMERIS_TYPE":0,"CLASSIFICATION_TYPE":"U","NORAD_CAT_ID":47289,"ELEMENT_SET_NO":999,"REV_AT_EPOCH":26141,"BSTAR":-0.0011148,"MEAN_MOTION_DOT":-3.88e-06,"MEAN_MOTION_DDOT":0.0},{"OBJECT_NAME":"ONEWEB-0144","OBJECT_ID":"2020-100AJ","EPOCH":"2026-05-23T12:18:21.091104","MEAN_MOTION":13.12440765,"ECCENTRICITY":0.0001482,"INCLINATION":87.8964,"RA_OF_ASC_NODE":355.5473,"ARG_OF_PERICENTER":92.0994,"MEAN_ANOMALY":268.0304,"EPHEMERIS_TYPE":0,"CLASSIFICATION_TYPE":"U","NORAD_CAT_ID":47290,"ELEMENT_SET_NO":999,"REV_AT_EPOCH":26133,"BSTAR":0.0005863800000000001,"MEAN_MOTION_DOT":2.24e-06,"MEAN_MOTION_DDOT":0.0},{"OBJECT_NAME":"ONEWEB-0145","OBJECT_ID":"2020-100AK","EPOCH":"2026-05-23T07:57:19.356192","MEAN_MOTION":13.12443632,"ECCENTRICITY":0.0001706,"INCLINATION":87.8953,"RA_OF_ASC_NODE":355.6138,"ARG_OF_PERICENTER":87.7841,"MEAN_ANOMALY":272.3482,"EPHEMERIS_TYPE":0,"CLASSIFICATION_TYPE":"U","NORAD_CAT_ID":47291,"ELEMENT_SET_NO":999,"REV_AT_EPOCH":26150,"BSTAR":0.00054833,"MEAN_MOTION_DOT":2.1e-06,"MEAN_MOTION_DDOT":0.0},{"OBJECT_NAME":"ONEWEB-0146","OBJECT_ID":"2020-100AL","EPOCH":"2026-05-23T07:52:27.448608","MEAN_MOTION":13.12406541,"ECCENTRICITY":0.0002039,"INCLINATION":87.896,"RA_OF_ASC_NODE":355.6043,"ARG_OF_PERICENTER":88.5538,"MEAN_ANOMALY":271.5824,"EPHEMERIS_TYPE":0,"CLASSIFICATION_TYPE":"U","NORAD_CAT_ID":47292,"ELEMENT_SET_NO":999,"REV_AT_EPOCH":26141,"BSTAR":0.020631,"MEAN_MOTION_DOT":7.437e-05,"MEAN_MOTION_DDOT":0.0},{"OBJECT_NAME":"ONEWEB-0147","OBJECT_ID":"2020-100AM","EPOCH":"2026-05-23T12:32:59.619264","MEAN_MOTION":13.12441298,"ECCENTRICITY":0.00017,"INCLINATION":87.8961,"RA_OF_ASC_NODE":355.547,"ARG_OF_PERICENTER":81.2804,"MEAN_ANOMALY":278.8517,"EPHEMERIS_TYPE":0,"CLASSIFICATION_TYPE":"U","NORAD_CAT_ID":47293,"ELEMENT_SET_NO":999,"REV_AT_EPOCH":26133,"BSTAR":-0.00037190000000000004,"MEAN_MOTION_DOT":-1.21e-06,"MEAN_MOTION_DDOT":0.0},{"OBJECT_NAME":"ONEWEB-0115","OBJECT_ID":"2021-025A","EPOCH":"2026-05-23T11:51:36.362304","MEAN_MOTION":13.13469622,"ECCENTRICITY":0.0001803,"INCLINATION":87.8946,"RA_OF_ASC_NODE":325.1423,"ARG_OF_PERICENTER":90.2016,"MEAN_ANOMALY":269.932,"EPHEMERIS_TYPE":0,"CLASSIFICATION_TYPE":"U","NORAD_CAT_ID":48042,"ELEMENT_SET_NO":999,"REV_AT_EPOCH":25035,"BSTAR":0.00029992,"MEAN_MOTION_DOT":1.22e-06,"MEAN_MOTION_DDOT":0.0},{"OBJECT_NAME":"ONEWEB-0152","OBJECT_ID":"2021-025B","EPOCH":"2026-05-23T12:11:06.302112","MEAN_MOTION":13.13469545,"ECCENTRICITY":0.0001856,"INCLINATION":87.8942,"RA_OF_ASC_NODE":325.1359,"ARG_OF_PERICENTER":86.1395,"MEAN_ANOMALY":273.9946,"EPHEMERIS_TYPE":0,"CLASSIFICATION_TYPE":"U","NORAD_CAT_ID":48043,"ELEMENT_SET_NO":999,"REV_AT_EPOCH":25031,"BSTAR":-0.00016669999999999999,"MEAN_MOTION_DOT":-4.8e-07,"MEAN_MOTION_DDOT":0.0},{"OBJECT_NAME":"ONEWEB-0153","OBJECT_ID":"2021-025C","EPOCH":"2026-05-23T11:39:25.157376","MEAN_MOTION":13.13469406,"ECCENTRICITY":0.000177,"INCLINATION":87.894,"RA_OF_ASC_NODE":325.1446,"ARG_OF_PERICENTER":93.3451,"MEAN_ANOMALY":266.788,"EPHEMERIS_TYPE":0,"CLASSIFICATION_TYPE":"U","NORAD_CAT_ID":48044,"ELEMENT_SET_NO":999,"REV_AT_EPOCH":25030,"BSTAR":0.00085435,"MEAN_MOTION_DOT":3.25e-06,"MEAN_MOTION_DDOT":0.0},{"OBJECT_NAME":"ONEWEB-0154","OBJECT_ID":"2021-025D","EPOCH":"2026-05-23T11:34:31.867392","MEAN_MOTION":13.13469646,"ECCENTRICITY":0.0001732,"INCLINATION":87.8938,"RA_OF_ASC_NODE":325.1423,"ARG_OF_PERICENTER":89.5242,"MEAN_ANOMALY":270.6085,"EPHEMERIS_TYPE":0,"CLASSIFICATION_TYPE":"U","NORAD_CAT_ID":48045,"ELEMENT_SET_NO":999,"REV_AT_EPOCH":25026,"BSTAR":0.00023260000000000002,"MEAN_MOTION_DOT":9.8e-07,"MEAN_MOTION_DDOT":0.0}]